[{"OBJECT_NAME":"WILDFIRE 8","OBJECT_ID":"2023-133M","EPOCH":"2026-03-09T12:22:22.023552","MEAN_MOTION":13.85412559,"ECCENTRICITY":0.00047302,"INCLINATION":80.9917,"RA_OF_ASC_NODE":102.7075,"ARG_OF_PERICENTER":283.6827,"MEAN_ANOMALY":76.3802,"EPHEMERIS_TYPE":0,"CLASSIFICATION_TYPE":"U","NORAD_CAT_ID":57768,"ELEMENT_SET_NO":999,"REV_AT_EPOCH":12723,"BSTAR":-0.00014989994,"MEAN_MOTION_DOT":-1.6e-6,"MEAN_MOTION_DDOT":0},{"OBJECT_NAME":"COSMOS 970 DEB","OBJECT_ID":"1977-121DP","EPOCH":"2026-03-08T11:52:46.278048","MEAN_MOTION":13.75957481,"ECCENTRICITY":0.01115781,"INCLINATION":65.8337,"RA_OF_ASC_NODE":139.952,"ARG_OF_PERICENTER":179.3659,"MEAN_ANOMALY":194.9326,"EPHEMERIS_TYPE":0,"CLASSIFICATION_TYPE":"U","NORAD_CAT_ID":65002,"ELEMENT_SET_NO":999,"REV_AT_EPOCH":61652,"BSTAR":0.00065837472,"MEAN_MOTION_DOT":5.88e-6,"MEAN_MOTION_DDOT":0}]
